start=new Date('2022-10-30T00:00:00.000Z').valueOf();
sats=[{"CLASSIFICATION_TYPE":"U","TIME_SYSTEM":"UTC","PERIAPSIS":"545.942","OBJECT_ID":"2021-040AM","BSTAR":"-0.00022444000000","INCLINATION":"53.0534","RCS_SIZE":"LARGE","DECAY_DATE":null,"COUNTRY_CODE":"US","TLE_LINE1":"1 48463U 21040AM  22302.70409023 -.00003623  00000-0 -22444-3 0  9991","ECCENTRICITY":"0.00018580","MEAN_MOTION_DDOT":"0.0000000000000","OBJECT_NAME":"STARLINK-2689","MEAN_MOTION_DOT":"-0.00003623","GP_ID":"216476826","MEAN_ANOMALY":"312.0442","EPOCH":"2022-10-29T16:53:53.395872","TLE_LINE2":"2 48463  53.0534 299.7854 0001858  48.0705 312.0442 15.06395067 81565","APOAPSIS":"548.515","EPHEMERIS_TYPE":"0","SITE":"AFETR","ELEMENT_SET_NO":"999","SEMIMAJOR_AXIS":"6925.364","RA_OF_ASC_NODE":"299.7854","REF_FRAME":"TEME","MEAN_MOTION":"15.06395067","LAUNCH_DATE":"2021-05-09","FILE":"3637863","OBJECT_TYPE":"PAYLOAD","PERIOD":"95.592","CENTER_NAME":"EARTH","ARG_OF_PERICENTER":"48.0705","MEAN_ELEMENT_THEORY":"SGP4","NORAD_CAT_ID":"48463","REV_AT_EPOCH":"8156"},{"REF_FRAME":"TEME","MEAN_MOTION":"15.06408168","LAUNCH_DATE":"2021-05-09","OBJECT_TYPE":"PAYLOAD","FILE":"3637424","PERIOD":"95.592","ARG_OF_PERICENTER":"44.3266","CENTER_NAME":"EARTH","MEAN_ELEMENT_THEORY":"SGP4","REV_AT_EPOCH":"8149","NORAD_CAT_ID":"48464","TIME_SYSTEM":"UTC","CLASSIFICATION_TYPE":"U","INCLINATION":"53.0532","RCS_SIZE":"MEDIUM","PERIAPSIS":"545.621","BSTAR":"-0.00001918700000","OBJECT_ID":"2021-040AN","TLE_LINE1":"1 48464U 21040AN  22302.28485211 -.00000568  00000-0 -19187-4 0  9994","ECCENTRICITY":"0.00022630","DECAY_DATE":null,"COUNTRY_CODE":"US","OBJECT_NAME":"STARLINK-2686","MEAN_MOTION_DOT":"-0.00000568","MEAN_MOTION_DDOT":"0.0000000000000","GP_ID":"216441010","APOAPSIS":"548.756","EPOCH":"2022-10-29T06:50:11.222304","MEAN_ANOMALY":"315.7904","TLE_LINE2":"2 48464  53.0532 301.6640 0002263  44.3266 315.7904 15.06408168 81494","SITE":"AFETR","EPHEMERIS_TYPE":"0","SEMIMAJOR_AXIS":"6925.324","RA_OF_ASC_NODE":"301.6640","ELEMENT_SET_NO":"999"},{"OBJECT_NAME":"STARLINK-2681","MEAN_MOTION_DOT":"-0.00001311","MEAN_MOTION_DDOT":"0.0000000000000","TLE_LINE1":"1 48465U 21040AP  22302.49495328 -.00001311  00000-0 -69061-4 0  9991","ECCENTRICITY":"0.00023720","COUNTRY_CODE":"US","DECAY_DATE":null,"INCLINATION":"53.0536","RCS_SIZE":"LARGE","PERIAPSIS":"545.546","OBJECT_ID":"2021-040AP","BSTAR":"-0.00006906100000","TIME_SYSTEM":"UTC","CLASSIFICATION_TYPE":"U","RA_OF_ASC_NODE":"300.7042","SEMIMAJOR_AXIS":"6925.324","ELEMENT_SET_NO":"999","SITE":"AFETR","EPHEMERIS_TYPE":"0","APOAPSIS":"548.832","EPOCH":"2022-10-29T11:52:43.963392","MEAN_ANOMALY":"317.6725","TLE_LINE2":"2 48465  53.0536 300.7042 0002372  42.4447 317.6725 15.06407982 81536","GP_ID":"216475825","OBJECT_TYPE":"PAYLOAD","FILE":"3637863","MEAN_MOTION":"15.06407982","LAUNCH_DATE":"2021-05-09","REF_FRAME":"TEME","REV_AT_EPOCH":"8153","NORAD_CAT_ID":"48465","MEAN_ELEMENT_THEORY":"SGP4","ARG_OF_PERICENTER":"42.4447","CENTER_NAME":"EARTH","PERIOD":"95.592"},{"CENTER_NAME":"EARTH","ARG_OF_PERICENTER":"41.2162","PERIOD":"95.592","NORAD_CAT_ID":"48466","REV_AT_EPOCH":"8158","MEAN_ELEMENT_THEORY":"SGP4","LAUNCH_DATE":"2021-05-09","MEAN_MOTION":"15.06403794","REF_FRAME":"TEME","FILE":"3637863","OBJECT_TYPE":"PAYLOAD","TLE_LINE2":"2 48466  53.0549 299.2904 0002536  41.2162 318.9018 15.06403794 81584","MEAN_ANOMALY":"318.9018","EPOCH":"2022-10-29T19:29:11.441472","APOAPSIS":"548.958","GP_ID":"216476075","ELEMENT_SET_NO":"999","RA_OF_ASC_NODE":"299.2904","SEMIMAJOR_AXIS":"6925.337","EPHEMERIS_TYPE":"0","SITE":"AFETR","BSTAR":"-0.00002107200000","OBJECT_ID":"2021-040AQ","PERIAPSIS":"545.446","RCS_SIZE":"LARGE","INCLINATION":"53.0549","CLASSIFICATION_TYPE":"U","TIME_SYSTEM":"UTC","MEAN_MOTION_DDOT":"0.0000000000000","MEAN_MOTION_DOT":"-0.00000596","OBJECT_NAME":"STARLINK-2687","DECAY_DATE":null,"COUNTRY_CODE":"US","ECCENTRICITY":"0.00025360","TLE_LINE1":"1 48466U 21040AQ  22302.81193798 -.00000596  00000-0 -21072-4 0  9998"},{"MEAN_MOTION":"15.06410410","LAUNCH_DATE":"2021-05-09","REF_FRAME":"TEME","OBJECT_TYPE":"PAYLOAD","FILE":"3637424","ARG_OF_PERICENTER":"47.1462","CENTER_NAME":"EARTH","PERIOD":"95.591","REV_AT_EPOCH":"8151","NORAD_CAT_ID":"48467","MEAN_ELEMENT_THEORY":"SGP4","INCLINATION":"53.0545","RCS_SIZE":"LARGE","PERIAPSIS":"545.644","BSTAR":"0.00003751300000","OBJECT_ID":"2021-040AR","TIME_SYSTEM":"UTC","CLASSIFICATION_TYPE":"U","OBJECT_NAME":"STARLINK-2659","MEAN_MOTION_DOT":"0.00000277","MEAN_MOTION_DDOT":"0.0000000000000","TLE_LINE1":"1 48467U 21040AR  22302.37331316  .00000277  00000-0  37513-4 0  9991","ECCENTRICITY":"0.00022200","COUNTRY_CODE":"US","DECAY_DATE":null,"APOAPSIS":"548.719","EPOCH":"2022-10-29T08:57:34.257024","MEAN_ANOMALY":"312.9713","TLE_LINE2":"2 48467  53.0545 301.2654 0002220  47.1462 312.9713 15.06410410 81517","GP_ID":"216440264","SEMIMAJOR_AXIS":"6925.317","RA_OF_ASC_NODE":"301.2654","ELEMENT_SET_NO":"999","SITE":"AFETR","EPHEMERIS_TYPE":"0"},{"BSTAR":"-0.00000733560000","OBJECT_ID":"2021-040AS","PERIAPSIS":"545.573","RCS_SIZE":"LARGE","INCLINATION":"53.0555","CLASSIFICATION_TYPE":"U","TIME_SYSTEM":"UTC","MEAN_MOTION_DDOT":"0.0000000000000","MEAN_MOTION_DOT":"-0.00000391","OBJECT_NAME":"STARLINK-2685","COUNTRY_CODE":"US","DECAY_DATE":null,"ECCENTRICITY":"0.00023870","TLE_LINE1":"1 48468U 21040AS  22302.68662419 -.00000391  00000-0 -73356-5 0  9992","TLE_LINE2":"2 48468  53.0555 299.8640 0002387  46.7684 313.3504 15.06396060 81563","EPOCH":"2022-10-29T16:28:44.330016","MEAN_ANOMALY":"313.3504","APOAPSIS":"548.879","GP_ID":"216476556","ELEMENT_SET_NO":"999","RA_OF_ASC_NODE":"299.8640","SEMIMAJOR_AXIS":"6925.361","EPHEMERIS_TYPE":"0","SITE":"AFETR","LAUNCH_DATE":"2021-05-09","MEAN_MOTION":"15.06396060","REF_FRAME":"TEME","FILE":"3637863","OBJECT_TYPE":"PAYLOAD","CENTER_NAME":"EARTH","ARG_OF_PERICENTER":"46.7684","PERIOD":"95.592","NORAD_CAT_ID":"48468","REV_AT_EPOCH":"8156","MEAN_ELEMENT_THEORY":"SGP4"},{"INCLINATION":"53.0539","RCS_SIZE":"LARGE","PERIAPSIS":"545.769","OBJECT_ID":"2021-040AT","BSTAR":"0.00002785900000","TIME_SYSTEM":"UTC","CLASSIFICATION_TYPE":"U","OBJECT_NAME":"STARLINK-2661","MEAN_MOTION_DOT":"0.00000133","MEAN_MOTION_DDOT":"0.0000000000000","TLE_LINE1":"1 48469U 21040AT  22302.30328975  .00000133  00000-0  27859-4 0  9996","ECCENTRICITY":"0.00020390","COUNTRY_CODE":"US","DECAY_DATE":null,"APOAPSIS":"548.593","EPOCH":"2022-10-29T07:16:44.234400","MEAN_ANOMALY":"317.0803","TLE_LINE2":"2 48469  53.0539 301.5661 0002039  43.0346 317.0803 15.06410720 81506","GP_ID":"216439266","SEMIMAJOR_AXIS":"6925.316","RA_OF_ASC_NODE":"301.5661","ELEMENT_SET_NO":"999","SITE":"AFETR","EPHEMERIS_TYPE":"0","MEAN_MOTION":"15.06410720","LAUNCH_DATE":"2021-05-09","REF_FRAME":"TEME","OBJECT_TYPE":"PAYLOAD","FILE":"3637424","ARG_OF_PERICENTER":"43.0346","CENTER_NAME":"EARTH","PERIOD":"95.591","REV_AT_EPOCH":"8150","NORAD_CAT_ID":"48469","MEAN_ELEMENT_THEORY":"SGP4"},{"SITE":"AFETR","EPHEMERIS_TYPE":"0","SEMIMAJOR_AXIS":"6925.314","RA_OF_ASC_NODE":"301.2896","ELEMENT_SET_NO":"999","GP_ID":"216439516","APOAPSIS":"548.984","EPOCH":"2022-10-29T08:45:35.725248","MEAN_ANOMALY":"322.2672","TLE_LINE2":"2 48470  53.0547 301.2896 0002606  37.8500 322.2672 15.06411175 81504","TLE_LINE1":"1 48470U 21040AU  22302.36499682  .00000129  00000-0  27602-4 0  9999","ECCENTRICITY":"0.00026060","COUNTRY_CODE":"US","DECAY_DATE":null,"OBJECT_NAME":"STARLINK-2675","MEAN_MOTION_DOT":"0.00000129","MEAN_MOTION_DDOT":"0.0000000000000","TIME_SYSTEM":"UTC","CLASSIFICATION_TYPE":"U","INCLINATION":"53.0547","RCS_SIZE":"LARGE","PERIAPSIS":"545.375","OBJECT_ID":"2021-040AU","BSTAR":"0.00002760200000","MEAN_ELEMENT_THEORY":"SGP4","REV_AT_EPOCH":"8150","NORAD_CAT_ID":"48470","PERIOD":"95.591","ARG_OF_PERICENTER":"37.8500","CENTER_NAME":"EARTH","OBJECT_TYPE":"PAYLOAD","FILE":"3637424","REF_FRAME":"TEME","MEAN_MOTION":"15.06411175","LAUNCH_DATE":"2021-05-09"},{"REV_AT_EPOCH":"8157","NORAD_CAT_ID":"48471","MEAN_ELEMENT_THEORY":"SGP4","ARG_OF_PERICENTER":"46.9652","CENTER_NAME":"EARTH","PERIOD":"95.592","OBJECT_TYPE":"PAYLOAD","FILE":"3637863","MEAN_MOTION":"15.06402835","LAUNCH_DATE":"2021-05-09","REF_FRAME":"TEME","SEMIMAJOR_AXIS":"6925.340","RA_OF_ASC_NODE":"299.2296","ELEMENT_SET_NO":"999","SITE":"AFETR","EPHEMERIS_TYPE":"0","APOAPSIS":"548.742","MEAN_ANOMALY":"313.1523","EPOCH":"2022-10-29T19:45:06.791328","TLE_LINE2":"2 48471  53.0539 299.2296 0002220  46.9652 313.1523 15.06402835 81571","GP_ID":"216476827","OBJECT_NAME":"STARLINK-2684","MEAN_MOTION_DOT":"-0.00000205","MEAN_MOTION_DDOT":"0.0000000000000","TLE_LINE1":"1 48471U 21040AV  22302.82299527 -.00000205  00000-0  51555-5 0  9998","ECCENTRICITY":"0.00022200","COUNTRY_CODE":"US","DECAY_DATE":null,"INCLINATION":"53.0539","RCS_SIZE":"LARGE","PERIAPSIS":"545.667","OBJECT_ID":"2021-040AV","BSTAR":"0.00000515550000","TIME_SYSTEM":"UTC","CLASSIFICATION_TYPE":"U"},{"NORAD_CAT_ID":"48472","REV_AT_EPOCH":"8147","MEAN_ELEMENT_THEORY":"SGP4","CENTER_NAME":"EARTH","ARG_OF_PERICENTER":"47.0899","PERIOD":"95.592","FILE":"3637424","OBJECT_TYPE":"PAYLOAD","MEAN_MOTION":"15.06409593","LAUNCH_DATE":"2021-05-09","REF_FRAME":"TEME","ELEMENT_SET_NO":"999","RA_OF_ASC_NODE":"302.0096","SEMIMAJOR_AXIS":"6925.319","EPHEMERIS_TYPE":"0","SITE":"AFETR","MEAN_ANOMALY":"313.0290","EPOCH":"2022-10-29T04:58:43.091616","TLE_LINE2":"2 48472  53.0549 302.0096 0002390  47.0899 313.0290 15.06409593 81474","APOAPSIS":"548.839","GP_ID":"216441011","MEAN_MOTION_DDOT":"0.0000000000000","OBJECT_NAME":"STARLINK-2722","MEAN_MOTION_DOT":"-0.00000271","DECAY_DATE":null,"COUNTRY_CODE":"US","TLE_LINE1":"1 48472U 21040AW  22302.20744319 -.00000271  00000-0  72284-6 0  9991","ECCENTRICITY":"0.00023900","PERIAPSIS":"545.529","OBJECT_ID":"2021-040AW","BSTAR":"0.00000072284000","INCLINATION":"53.0549","RCS_SIZE":"LARGE","CLASSIFICATION_TYPE":"U","TIME_SYSTEM":"UTC"}];
